COSMOS 2251 DEB         
1 37543U 93036BNY 17345.30282691  .00002831  00000-0  18530-3 0  9998
2 37543  73.9663  95.5335 0078579 261.1329  98.0958 15.05800907433103
